NORAD_CAT_ID,OBJECT_NAME,OBJECT_TYPE,EPOCH,MEAN_MOTION,ECCENTRICITY,INCLINATION,RA_OF_ASC_NODE,ARG_OF_PERICENTER,MEAN_ANOMALY,BSTAR,MEAN_MOTION_DOT,MEAN_MOTION_DDOT,TLE_LINE0,TLE_LINE1,TLE_LINE2,SEMIMAJOR_AXIS,PERIOD,APOGEE,PERIGEE,DECAYED
53276.0,STARLINK-4174,PAYLOAD,2022-12-09 12:55:29,15.08830136,0.0001686999999999,53.2175,108.962,53.3486,306.7661,-8.243e-05,-1.599e-05,0.0,0 STARLINK-4174,1 53276U 22086AL  22343.53853106 -.00001599  00000-0 -82430-4 0  9993,2 53276  53.2175 108.9620 0001687  53.3486 306.7661 15.08830136 21956,6917.911,95.438,540.943,538.6080000000002,0.0
53276.0,STARLINK-4174,PAYLOAD,2022-12-09 19:17:02,15.0882009,0.0001807,53.2178,107.7732,49.2645,310.8503,-0.0001541999999999,-2.7399999999999995e-05,0.0,0 STARLINK-4174,1 53276U 22086AL  22343.80350243 -.00002740  00000-0 -15420-3 0  9990,2 53276  53.2178 107.7732 0001807  49.2645 310.8503 15.08820090 21998,6917.941,95.439,541.056,538.556,0.0
53276.0,STARLINK-4174,PAYLOAD,2022-12-10 04:49:21,15.08828033,0.0001727,53.2177,105.9891,48.6887,311.4254,-0.00016956,-2.985e-05,0.0,0 STARLINK-4174,1 53276U 22086AL  22344.20094182 -.00002985  00000-0 -16956-3 0  9998,2 53276  53.2177 105.9891 0001727  48.6887 311.4254 15.08828033 22058,6917.917,95.438,540.977,538.587,0.0
53276.0,STARLINK-4174,PAYLOAD,2022-12-10 14:21:39,15.08833569,0.0001778,53.2177,104.2053,47.872,312.2423,-0.00011241,-2.076e-05,0.0,0 STARLINK-4174,1 53276U 22086AL  22344.59837869 -.00002076  00000-0 -11241-3 0  9990,2 53276  53.2177 104.2053 0001778  47.8720 312.2423 15.08833569 22285,6917.9,95.438,540.995,538.535,0.0
53276.0,STARLINK-4174,PAYLOAD,2022-12-10 19:07:49,15.08837113,0.000182,53.2178,103.3131,47.4993,312.6153,-7.5133e-05,-1.484e-05,0.0,0 STARLINK-4174,1 53276U 22086AL  22344.79709614 -.00001484  00000-0 -75133-4 0  9991,2 53276  53.2178 103.3131 0001820  47.4993 312.6153 15.08837113 22316,6917.889,95.438,541.013,538.495,0.0
53276.0,STARLINK-4174,PAYLOAD,2022-12-11 04:40:07,15.08843576,0.0001814,53.2178,101.5287,48.2556,311.8591,6.743e-06,-1.81e-06,0.0,0 STARLINK-4174,1 53276U 22086AL  22345.19452996 -.00000181  00000-0  67430-5 0  9998,2 53276  53.2178 101.5287 0001814  48.2556 311.8591 15.08843576 22200,6917.869000000002,95.437,540.989,538.48,0.0
53276.0,STARLINK-4174,PAYLOAD,2022-12-11 12:37:02,15.08848316,0.0001823,53.2178,100.0419,51.1591,308.9564,0.00011019,1.466e-05,0.0,0 STARLINK-4174,1 53276U 22086AL  22345.52572309  .00001466  00000-0  11019-3 0  9992,2 53276  53.2178 100.0419 0001823  51.1591 308.9564 15.08848316 22421,6917.855,95.437,540.981,538.4590000000002,0.0
53276.0,STARLINK-4174,PAYLOAD,2022-12-11 18:58:35,15.08841415,0.0001849,53.2178,98.8525,52.9609,307.1552,0.00018416,2.644e-05,0.0,0 STARLINK-4174,1 53276U 22086AL  22345.79068535  .00002644  00000-0  18416-3 0  9999,2 53276  53.2178  98.8525 0001849  52.9609 307.1552 15.08841415 22465,6917.876,95.437,541.02,538.462,0.0
53276.0,STARLINK-4174,PAYLOAD,2022-12-12 02:55:31,15.08825881,0.0001703,53.2176,97.3655,56.187,303.9284,0.00042081,6.413e-05,0.0,0 STARLINK-4174,1 53276U 22086AL  22346.12189005  .00006413  00000-0  42081-3 0  9996,2 53276  53.2176  97.3655 0001703  56.1870 303.9284 15.08825881 22348,6917.924,95.438,540.967,538.61,0.0
53276.0,STARLINK-4174,PAYLOAD,2022-12-12 12:27:49,15.08841048,0.0001749,53.2178,95.5812,50.6533,309.4613,0.00015247,2.139e-05,0.0,0 STARLINK-4174,1 53276U 22086AL  22346.51932730  .00002139  00000-0  15247-3 0  9995,2 53276  53.2178  95.5812 0001749  50.6533 309.4613 15.08841048 22407,6917.877,95.437,540.952,538.5319999999998,0.0
53276.0,STARLINK-4174,PAYLOAD,2022-12-12 17:13:59,15.08836012,0.0001746,53.2178,94.6897,55.3113,304.8043,9.212e-05,1.178e-05,0.0,0 STARLINK-4174,1 53276U 22086AL  22346.71805239  .00001178  00000-0  92120-4 0  9998,2 53276  53.2178  94.6897 0001746  55.3113 304.8043 15.08836012 22437,6917.893,95.438,540.965,538.55,0.0
53276.0,STARLINK-4174,PAYLOAD,2022-12-12 20:24:46,15.08833501,0.0001806,53.2179,94.0949,49.9995,310.1155,5.1495e-05,5.31e-06,0.0,0 STARLINK-4174,1 53276U 22086AL  22346.85053607  .00000531  00000-0  51495-4 0  9999,2 53276  53.2179  94.0949 0001806  49.9995 310.1155 15.08833501 22629,6917.9,95.438,541.015,538.516,0.0
53276.0,STARLINK-4174,PAYLOAD,2022-12-13 13:54:00,15.08842195,0.0001783,53.218,90.8242,50.8499,309.2652,-1.5481e-05,-5.35e-06,0.0,0 STARLINK-4174,1 53276U 22086AL  22347.57917374 -.00000535  00000-0 -15481-4 0  9990,2 53276  53.2180  90.8242 0001783  50.8499 309.2652 15.08842195 22737,6917.874,95.437,540.972,538.505,0.0
53276.0,STARLINK-4174,PAYLOAD,2022-12-13 18:40:09,15.08848626,0.0001821,53.2179,89.9322,48.3976,311.7172,5.599e-06,-1.99e-06,0.0,0 STARLINK-4174,1 53276U 22086AL  22347.77788870 -.00000199  00000-0  55990-5 0  9994,2 53276  53.2179  89.9322 0001821  48.3976 311.7172 15.08848626 22761,6917.854,95.437,540.979,538.4590000000002,0.0
53276.0,STARLINK-4174,PAYLOAD,2022-12-14 02:37:06,15.08832518,0.0001875,53.2182,88.4457,50.1935,309.9222,3.9184e-05,3.35e-06,0.0,0 STARLINK-4174,1 53276U 22086AL  22348.10909855  .00000335  00000-0  39184-4 0  9997,2 53276  53.2182  88.4457 0001875  50.1935 309.9222 15.08832518 22648,6917.903,95.438,541.065,538.471,0.0
53276.0,STARLINK-4174,PAYLOAD,2022-12-14 13:44:47,15.0883839,0.0001733,53.2181,86.3637,43.8058,316.3072,-8.1128e-05,-1.579e-05,0.0,0 STARLINK-4174,1 53276U 22086AL  22348.57277701 -.00001579  00000-0 -81128-4 0  9994,2 53276  53.2181  86.3637 0001733  43.8058 316.3072 15.08838390 22887,6917.885,95.438,540.9490000000002,538.5509999999998,0.0
53276.0,STARLINK-4174,PAYLOAD,2022-12-14 20:06:20,15.08841226,0.0001746,53.2181,85.1744,41.7161,318.3964,4.7287e-05,4.65e-06,0.0,0 STARLINK-4174,1 53276U 22086AL  22348.83773282  .00000465  00000-0  47287-4 0  9997,2 53276  53.2181  85.1744 0001746  41.7161 318.3964 15.08841226 22928,6917.877,95.437,540.95,538.534,0.0
53276.0,STARLINK-4174,PAYLOAD,2022-12-14 21:41:43,15.08843903,0.0001748,53.2182,84.8771,40.5466,319.5656,4.8133e-05,4.78e-06,0.0,0 STARLINK-4174,1 53276U 22086AL  22348.90397113  .00000478  00000-0  48133-4 0  9995,2 53276  53.2182  84.8771 0001748  40.5466 319.5656 15.08843903 22769,6917.868,95.437,540.943,538.524,0.0
53276.0,STARLINK-4174,PAYLOAD,2022-12-15 07:14:02,15.08836528,0.0001902,53.2173,83.0933,43.1352,316.9789,5.8673e-05,6.46e-06,0.0,0 STARLINK-4174,1 53276U 22086AL  22349.30141683  .00000646  00000-0  58673-4 0  9996,2 53276  53.2173  83.0933 0001902  43.1352 316.9789 15.08836528 22825,6917.891,95.438,541.072,538.44,0.0
53276.0,STARLINK-4174,PAYLOAD,2022-12-15 13:35:34,15.08852634,0.0001889,53.2173,81.9039,43.5461,316.568,0.00035553,5.377e-05,0.0,0 STARLINK-4174,1 53276U 22086AL  22349.56637011  .00005377  00000-0  35553-3 0  9996,2 53276  53.2173  81.9039 0001889  43.5461 316.5680 15.08852634 22864,6917.842,95.437,541.014,538.4,0.0
53276.0,STARLINK-4174,PAYLOAD,2022-12-15 18:21:43,15.08865111,0.0001904,53.2169,81.0119,42.4294,317.6846,0.00084147,0.00013139,0.0,0 STARLINK-4174,1 53276U 22086AL  22349.76508848  .00013139  00000-0  84147-3 0  9991,2 53276  53.2169  81.0119 0001904  42.4294 317.6846 15.08865111 23062,6917.804,95.436,540.986,538.351,0.0
53276.0,STARLINK-4174,PAYLOAD,2022-12-16 07:04:48,15.088445000000002,0.0001811,53.2166,78.6327,41.2943,318.8185,-8.4854e-06,-4.23e-06,0.0,0 STARLINK-4174,1 53276U 22086AL  22350.29501004 -.00000423  00000-0 -84854-5 0  9999,2 53276  53.2166  78.6327 0001811  41.2943 318.8185 15.08844500 22974,6917.8669999999975,95.437,540.984,538.479,0.0
53276.0,STARLINK-4174,PAYLOAD,2022-12-16 13:26:21,15.08837495,0.000179,53.2168,77.4431,39.4275,320.6847,-0.00012171,-2.224e-05,0.0,0 STARLINK-4174,1 53276U 22086AL  22350.55997212 -.00002224  00000-0 -12171-3 0  9990,2 53276  53.2168  77.4431 0001790  39.4275 320.6847 15.08837495 23187,6917.888000000001,95.438,540.991,538.515,0.0
53276.0,STARLINK-4174,PAYLOAD,2022-12-16 15:01:44,15.088347199999998,0.0001871,53.2169,77.1461,41.4552,318.6582,-0.00012708,-2.31e-05,0.0,0 STARLINK-4174,1 53276U 22086AL  22350.62621396 -.00002310  00000-0 -12708-3 0  9997,2 53276  53.2169  77.1461 0001871  41.4552 318.6582 15.08834720 23023,6917.897,95.438,541.056,538.467,0.0
53276.0,STARLINK-4174,PAYLOAD,2022-12-17 10:06:23,15.08824797,0.000187,53.2173,73.5768,39.7977,320.3152,-0.00014163,-2.541e-05,0.0,0 STARLINK-4174,1 53276U 22086AL  22351.42110370 -.00002541  00000-0 -14163-3 0  9994,2 53276  53.2173  73.5768 0001870  39.7977 320.3152 15.08824797 23147,6917.927,95.439,541.086,538.498,0.0
53276.0,STARLINK-4174,PAYLOAD,2022-12-17 13:17:09,15.0882679,0.0001858,53.2174,72.9831,42.4107,317.7029,-7.1963e-05,-1.433e-05,0.0,0 STARLINK-4174,1 53276U 22086AL  22351.55358437 -.00001433  00000-0 -71963-4 0  9997,2 53276  53.2174  72.9831 0001858  42.4107 317.7029 15.08826790 23333,6917.920999999999,95.438,541.071,538.5,0.0
53276.0,STARLINK-4174,PAYLOAD,2022-12-17 14:52:32,15.08826716,0.0001852,53.2174,72.6854,42.0676,318.0458,-8.784899999999999e-05,-1.685e-05,0.0,0 STARLINK-4174,1 53276U 22086AL  22351.61982491 -.00001685  00000-0 -87849-4 0  9996,2 53276  53.2174  72.6854 0001852  42.0676 318.0458 15.08826716 23345,6917.920999999999,95.438,541.067,538.505,0.0
53276.0,STARLINK-4174,PAYLOAD,2022-12-18 05:11:00,15.08841143,0.000202,53.2187,70.0093,42.8058,317.3091,4.6583e-05,4.53e-06,0.0,0 STARLINK-4174,1 53276U 22086AL  22352.21598179  .00000453  00000-0  46583-4 0  9999,2 53276  53.2187  70.0093 0002020  42.8058 317.3091 15.08841143 23263,6917.877,95.437,541.139,538.344,0.0
53276.0,STARLINK-4174,PAYLOAD,2022-12-18 11:32:30,15.08878407,0.0001975,53.2184,68.8205,46.1635,313.952,0.00046952,7.2e-05,0.0,0 STARLINK-4174,1 53276U 22086AL  22352.48090503  .00007200  00000-0  46952-3 0  9992,2 53276  53.2184  68.8205 0001975  46.1635 313.9520 15.08878407 23303,6917.763000000001,95.435,540.994,538.262,0.0
